{
    "links": {
        "self": "http://www.neowsapp.com/rest/v1/neo/3511355?api_key=iIulBulltgU6a56xZRHN4H3l9WmuAYTsLGpBGhQ2"
    },
    "id": "3511355",
    "neo_reference_id": "3511355",
    "name": "(2010 DJ77)",
    "designation": "2010 DJ77",
    "nasa_jpl_url": "http://ssd.jpl.nasa.gov/sbdb.cgi?sstr=3511355",
    "absolute_magnitude_h": 21.933,
    "estimated_diameter": {
        "kilometers": {
            "estimated_diameter_min": 0.1091327192,
            "estimated_diameter_max": 0.2440281788
        },
        "meters": {
            "estimated_diameter_min": 109.1327192482,
            "estimated_diameter_max": 244.0281788084
        },
        "miles": {
            "estimated_diameter_min": 0.0678119069,
            "estimated_diameter_max": 0.1516320335
        },
        "feet": {
            "estimated_diameter_min": 358.0469906183,
            "estimated_diameter_max": 800.6174101617
        }
    },
    "is_potentially_hazardous_asteroid": false,
    "close_approach_data": [
        {
            "close_approach_date": "2009-12-30",
            "close_approach_date_full": "2009-Dec-30 01:16",
            "epoch_date_close_approach": 1262135760000,
            "relative_velocity": {
                "kilometers_per_second": "13.8547975518",
                "kilometers_per_hour": "49877.2711863011",
                "miles_per_hour": "30991.7966435102"
            },
            "miss_distance": {
                "astronomical": "0.1960415464",
                "lunar": "76.2601615496",
                "kilometers": "29327397.772946168",
                "miles": "18223199.9550983984"
            },
            "orbiting_body": "Earth"
        },
        {
            "close_approach_date": "2010-07-25",
            "close_approach_date_full": "2010-Jul-25 19:25",
            "epoch_date_close_approach": 1280085900000,
            "relative_velocity": {
                "kilometers_per_second": "13.4407493775",
                "kilometers_per_hour": "48386.6977588499",
                "miles_per_hour": "30065.6122824365"
            },
            "miss_distance": {
                "astronomical": "0.3720455775",
                "lunar": "144.7257296475",
                "kilometers": "55657225.936919925",
                "miles": "34583796.525247965"
            },
            "orbiting_body": "Earth"
        }
    ],
    "orbital_data": {
        "orbit_id": "16",
        "orbit_determination_date": "2020-11-11 14:07:34",
        "first_observation_date": "2010-02-20",
        "last_observation_date": "2010-02-23",
        "data_arc_in_days": 3,
        "observations_used": 35,
        "orbit_uncertainty": "9",
        "minimum_orbit_intersection": ".0500367",
        "jupiter_tisserand_invariant": "6.207",
        "epoch_osculation": "2455249.5",
        "eccentricity": ".2129611685181932",
        "semi_major_axis": ".9551776449204965",
        "inclination": "24.93197841050933",
        "ascending_node_longitude": "286.7775547650703",
        "orbital_period": "340.9766591756927",
        "perihelion_distance": ".7517618975157718",
        "perihelion_argument": "103.7162549362787",
        "aphelion_distance": "1.158593392325221",
        "perihelion_time": "2455143.387859151613",
        "mean_anomaly": "112.0322159228385",
        "mean_motion": "1.05579074201236",
        "equinox": "J2000",
        "orbit_class": {
            "orbit_class_type": "ATE",
            "orbit_class_description": "Near-Earth asteroid orbits similar to that of 2062 Aten",
            "orbit_class_range": "a (semi-major axis) < 1.0 AU; q (perihelion) > 0.983 AU"
        }
    },
    "is_sentry_object": false
}